NORAD_CAT_ID,OBJECT_NAME,OBJECT_TYPE,EPOCH,MEAN_MOTION,ECCENTRICITY,INCLINATION,RA_OF_ASC_NODE,ARG_OF_PERICENTER,MEAN_ANOMALY,BSTAR,MEAN_MOTION_DOT,MEAN_MOTION_DDOT,TLE_LINE0,TLE_LINE1,TLE_LINE2,SEMIMAJOR_AXIS,PERIOD,APOGEE,PERIGEE,DECAYED
53806.0,STARLINK-4768,PAYLOAD,2022-10-22 22:00:00,15.73235361,0.0001621999999999,53.2152,59.9366,25.7516,78.3596,4.6952e-05,5.983e-05,0.0,0 STARLINK-4768,1 53806U 22111AK  22295.91667824  .00005983  00000-0  46952-4 0  9997,2 53806  53.2152  59.9366 0001622  25.7516  78.3596 15.73235361  1305,6727.794,91.531,350.751,348.5680000000001,0.0
53806.0,STARLINK-4768,PAYLOAD,2022-10-23 00:00:02,15.73268176,0.0001561,53.2153,59.5236,27.4501,188.9599,-0.0004448,-0.00062765,0.0,0 STARLINK-4768,1 53806U 22111AK  22296.00002315 -.00062765  00000-0 -44480-3 0  9992,2 53806  53.2153  59.5236 0001561  27.4501 188.9599 15.73268176  6523,6727.701,91.529,350.616,348.516,0.0
53806.0,STARLINK-4768,PAYLOAD,2022-10-23 08:00:01,15.73218398,0.0001613,53.2158,57.8726,35.5062,269.9067,0.00089854,0.00127517,0.0,0 STARLINK-4768,1 53806U 22111AK  22296.33335648  .00127517  00000-0  89854-3 0  9995,2 53806  53.2158  57.8726 0001613  35.5062 269.9067 15.73218398  6579,6727.843000000003,91.532,350.793,348.62300000000016,0.0
53806.0,STARLINK-4768,PAYLOAD,2022-10-23 14:00:01,15.73280051,0.0001761,53.2156,56.6372,32.3044,249.7529,-0.00011017,-0.00016107,0.0,0 STARLINK-4768,1 53806U 22111AK  22296.58334491 -.00016107  00000-0 -11017-3 0  9997,2 53806  53.2156  56.6372 0001761  32.3044 249.7529 15.73280051  1300,6727.667,91.529,350.717,348.347,0.0
53806.0,STARLINK-4768,PAYLOAD,2022-10-23 22:00:00,15.73289061,0.0001803,53.2152,54.9875,26.0901,344.97900000000016,-0.00085404,-0.00119257,0.0,0 STARLINK-4768,1 53806U 22111AK  22296.91667824 -.00119257  00000-0 -85404-3 0  9994,2 53806  53.2152  54.9875 0001803  26.0901 344.9790 15.73289061  1302,6727.641,91.528,350.719,348.293,0.0
53806.0,STARLINK-4768,PAYLOAD,2022-10-24 06:00:00,15.732068099999998,0.0001576999999999,53.2155,53.3362,28.032,72.0413,-0.0011309,-0.0015647,0.0,0 STARLINK-4768,1 53806U 22111AK  22297.25001157 -.00156470  00000-0 -11309-2 0  9993,2 53806  53.2155  53.3362 0001577  28.0320  72.0413 15.73206810  6716,6727.876,91.533,350.802,348.68,0.0
53806.0,STARLINK-4768,PAYLOAD,2022-10-24 14:00:01,15.73007525,0.0001918,53.2158,51.6887,28.3713,160.5707,0.001014,0.00142954,0.0,0 STARLINK-4768,1 53806U 22111AK  22297.58334491  .00142954  00000-0  10140-2 0  9991,2 53806  53.2158  51.6887 0001918  28.3713 160.5707 15.73007525  1301,6728.444,91.544,351.599,349.01800000000014,0.0
53806.0,STARLINK-4768,PAYLOAD,2022-10-24 22:00:00,15.73156827,0.0002025,53.216,50.0393,31.9597,245.7201,0.00033031,0.00045906,0.0,0 STARLINK-4768,1 53806U 22111AK  22297.91667824  .00045906  00000-0  33031-3 0  9991,2 53806  53.2160  50.0393 0002025  31.9597 245.7201 15.73156827  1304,6728.018,91.536,351.246,348.521,0.0
53806.0,STARLINK-4768,PAYLOAD,2022-10-25 00:00:00,15.731781699999996,0.0002005,53.2162,49.6264,33.9037,355.992,0.00014373,0.0001958,0.0,0 STARLINK-4768,1 53806U 22111AK  22298.00001157  .00019580  00000-0  14373-3 0  9990,2 53806  53.2162  49.6264 0002005  33.9037 355.9920 15.73178170  6836,6727.956999999999,91.534,351.171,348.473,0.0
53806.0,STARLINK-4768,PAYLOAD,2022-10-25 14:00:01,15.73174224,0.0002126999999999,53.2164,46.7408,30.2998,65.1885,0.00025424,0.00035172,0.0,0 STARLINK-4768,1 53806U 22111AK  22298.58334491  .00035172  00000-0  25424-3 0  9997,2 53806  53.2164  46.7408 0002127  30.2998  65.1885 15.73174224  1300,6727.969,91.535,351.265,348.403,0.0
53806.0,STARLINK-4768,PAYLOAD,2022-10-25 22:00:01,15.73240814,0.0002103,53.2161,45.0909,28.0055,156.4502,-0.00025227,-0.0003594,0.0,0 STARLINK-4768,1 53806U 22111AK  22298.91668981 -.00035940  00000-0 -25227-3 0  9994,2 53806  53.2161  45.0909 0002103  28.0055 156.4502 15.73240814  1307,6727.779,91.531,351.059,348.22900000000016,0.0
53806.0,STARLINK-4768,PAYLOAD,2022-10-26 06:00:00,15.73190033,0.0001891,53.2163,43.44,28.2911,245.0804,0.00049209,0.00068983,0.0,0 STARLINK-4768,1 53806U 22111AK  22299.25001157  .00068983  00000-0  49209-3 0  9995,2 53806  53.2163  43.4400 0001891  28.2911 245.0804 15.73190033  7036,6727.924,91.534,351.061,348.516,0.0
53806.0,STARLINK-4768,PAYLOAD,2022-10-26 14:00:01,15.73254196,0.00021,53.2165,41.7926,22.6218,339.6831,-0.00022628,-0.00032333,0.0,0 STARLINK-4768,1 53806U 22111AK  22299.58334491 -.00032333  00000-0 -22628-3 0  9999,2 53806  53.2165  41.7926 0002100  22.6218 339.6831 15.73254196  1309,6727.741,91.53,351.01800000000014,348.1930000000001,0.0
53806.0,STARLINK-4768,PAYLOAD,2022-10-26 22:00:00,15.7324864,0.0002129,53.2166,40.1424,19.6846,71.5993,-0.00036396,-0.000515,0.0,0 STARLINK-4768,1 53806U 22111AK  22299.91667824 -.00051500  00000-0 -36396-3 0  9999,2 53806  53.2166  40.1424 0002129  19.6846  71.5993 15.73248640  7135,6727.757,91.53,351.05400000000014,348.189,0.0
53806.0,STARLINK-4768,PAYLOAD,2022-10-27 08:00:01,15.7323723,0.0002077,53.2171,38.0795,24.7201,267.7705,-3.2807e-05,-5.231e-05,0.0,0 STARLINK-4768,1 53806U 22111AK  22300.33334491 -.00005231  00000-0 -32807-4 0  9993,2 53806  53.2171  38.0795 0002077  24.7201 267.7705 15.73237230  7203,6727.7890000000025,91.531,351.051,348.25699999999995,0.0
53806.0,STARLINK-4768,PAYLOAD,2022-10-27 14:00:01,15.73215295,0.0002366,53.2168,36.844,22.9355,246.3526,-7.8627e-05,-0.0001165,0.0,0 STARLINK-4768,1 53806U 22111AK  22300.58335648 -.00011650  00000-0 -78627-4 0  9997,2 53806  53.2168  36.8440 0002366  22.9355 246.3526 15.73215295  1309,6727.852,91.532,351.30800000000005,348.125,0.0
53806.0,STARLINK-4768,PAYLOAD,2022-10-27 22:00:00,15.73270524,0.0002346999999999,53.2164,35.1937,20.3271,337.8314,-0.00037316,-0.0005283,0.0,0 STARLINK-4768,1 53806U 22111AK  22300.91667824 -.00052830  00000-0 -37316-3 0  9992,2 53806  53.2164  35.1937 0002347  20.3271 337.8314 15.73270524  1303,6727.694,91.529,351.13800000000015,347.98,0.0
53806.0,STARLINK-4768,PAYLOAD,2022-10-28 08:00:01,15.73213938,0.0002215999999999,53.2167,33.1312,23.9873,175.4644,-0.00016336,-0.000235,0.0,0 STARLINK-4768,1 53806U 22111AK  22301.33335648 -.00023500  00000-0 -16336-3 0  9996,2 53806  53.2167  33.1312 0002216  23.9873 175.4644 15.73213938  7363,6727.855,91.532,351.211,348.23,0.0
53806.0,STARLINK-4768,PAYLOAD,2022-10-28 14:00:01,15.73205497,0.0002417,53.2166,31.8956,19.128,157.0203,-0.00014469,-0.00020885,0.0,0 STARLINK-4768,1 53806U 22111AK  22301.58335648 -.00020885  00000-0 -14469-3 0  9991,2 53806  53.2166  31.8956 0002417  19.1280 157.0203 15.73205497  1309,6727.88,91.533,351.371,348.11800000000005,0.0
53806.0,STARLINK-4768,PAYLOAD,2022-10-28 22:00:01,15.73218636,0.0002384999999999,53.2166,30.2451,16.8724,248.2035,-0.00040479,-0.000571,0.0,0 STARLINK-4768,1 53806U 22111AK  22301.91668981 -.00057100  00000-0 -40479-3 0  9997,2 53806  53.2166  30.2451 0002385  16.8724 248.2035 15.73218636  1308,6727.842,91.532,351.31199999999984,348.102,0.0
53806.0,STARLINK-4768,PAYLOAD,2022-10-29 08:00:01,15.73216465,0.0002444,53.2169,28.1827,22.4623,83.7071,-0.00015247,-0.00021982,0.0,0 STARLINK-4768,1 53806U 22111AK  22302.33334491 -.00021982  00000-0 -15247-3 0  9994,2 53806  53.2169  28.1827 0002444  22.4623  83.7071 15.73216465  7510,6727.848000000001,91.532,351.358,348.069,0.0
53806.0,STARLINK-4768,PAYLOAD,2022-10-29 12:00:00,15.73230267,0.0002592,53.2167,27.359,20.31,310.3408,-0.0002352,-0.00033548,0.0,0 STARLINK-4768,1 53806U 22111AK  22302.50001157 -.00033548  00000-0 -23520-3 0  9997,2 53806  53.2167  27.3590 0002592  20.3100 310.3408 15.73230267  1307,6727.809,91.531,351.418,347.93,0.0
53806.0,STARLINK-4768,PAYLOAD,2022-10-29 22:00:01,15.73277316,0.0002578,53.2165,25.2963,16.3179,155.5759,-0.00043901,-0.00061997,0.0,0 STARLINK-4768,1 53806U 22111AK  22302.91668981 -.00061997  00000-0 -43901-3 0  9990,2 53806  53.2165  25.2963 0002578  16.3179 155.5759 15.73277316  1305,6727.675,91.529,351.274,347.805,0.0
53806.0,STARLINK-4768,PAYLOAD,2022-10-30 00:00:00,15.73264348,0.0002501999999999,53.2166,24.8835,16.3444,267.7374,-0.00033785,-0.00047906,0.0,0 STARLINK-4768,1 53806U 22111AK  22303.00001157 -.00047906  00000-0 -33785-3 0  9990,2 53806  53.2166  24.8835 0002502  16.3444 267.7374 15.73264348  7622,6727.712,91.529,351.26,347.89300000000014,0.0
53806.0,STARLINK-4768,PAYLOAD,2022-10-30 14:00:01,15.73006518,0.0002393,53.217,21.9976,12.831,336.8213,0.0022254,0.00321281,0.0,0 STARLINK-4768,1 53806U 22111AK  22303.58334491  .00321281  00000-0  22254-2 0  9990,2 53806  53.2170  21.9976 0002393  12.8310 336.8213 15.73006518  1304,6728.446999999999,91.544,351.922,348.702,0.0
53806.0,STARLINK-4768,PAYLOAD,2022-10-30 22:00:01,15.7313895,0.0002708999999999,53.2166,20.3473,14.6552,64.1302,-8.744e-05,-0.00012845,0.0,0 STARLINK-4768,1 53806U 22111AK  22303.91668981 -.00012845  00000-0 -87440-4 0  9996,2 53806  53.2166  20.3473 0002709  14.6552  64.1302 15.73138950  1309,6728.069,91.537,351.75699999999995,348.112,0.0
53806.0,STARLINK-4768,PAYLOAD,2022-10-31 14:00:01,15.73202292,0.0003008,53.2169,17.0499,16.9169,239.5272,3.7617e-05,4.661e-05,0.0,0 STARLINK-4768,1 53806U 22111AK  22304.58334491  .00004661  00000-0  37617-4 0  9992,2 53806  53.2169  17.0499 0003008  16.9169 239.5272 15.73202292  1300,6727.889,91.533,351.777,347.73,0.0
53806.0,STARLINK-4768,PAYLOAD,2022-10-31 22:00:01,15.73197116,0.0002819999999999,53.2167,15.3987,13.6663,331.7875,-0.00025548,-0.00036326,0.0,0 STARLINK-4768,1 53806U 22111AK  22304.91668981 -.00036326  00000-0 -25548-3 0  9997,2 53806  53.2167  15.3987 0002820  13.6663 331.7875 15.73197116  7921,6727.903,91.533,351.666,347.871,0.0
53806.0,STARLINK-4768,PAYLOAD,2022-11-01 06:00:00,15.73255615,0.000288,53.2167,13.749,16.1612,58.139,0.00037006,0.00051767,0.0,0 STARLINK-4768,1 53806U 22111AK  22305.25001157  .00051767  00000-0  37006-3 0  9997,2 53806  53.2167  13.7490 0002880  16.1612  58.1390 15.73255615  7976,6727.736999999999,91.53,351.539,347.664,0.0
